[{"OBJECT_NAME":"STARLINK-32663","OBJECT_ID":"2024-229F","EPOCH":"2026-03-09T22:15:10.383264","MEAN_MOTION":15.27604752,"ECCENTRICITY":0.0001419,"INCLINATION":43.0011,"RA_OF_ASC_NODE":269.7238,"ARG_OF_PERICENTER":304.4278,"MEAN_ANOMALY":55.644,"EPHEMERIS_TYPE":0,"CLASSIFICATION_TYPE":"U","NORAD_CAT_ID":62197,"ELEMENT_SET_NO":999,"REV_AT_EPOCH":7059,"BSTAR":0.0010258125,"MEAN_MOTION_DOT":0.00028095,"MEAN_MOTION_DDOT":0},{"OBJECT_NAME":"HAWK-11A","OBJECT_ID":"2024-247F","EPOCH":"2026-03-09T12:17:43.893312","MEAN_MOTION":15.28849427,"ECCENTRICITY":0.00054663,"INCLINATION":44.9941,"RA_OF_ASC_NODE":114.3328,"ARG_OF_PERICENTER":327.3713,"MEAN_ANOMALY":32.6832,"EPHEMERIS_TYPE":0,"CLASSIFICATION_TYPE":"U","NORAD_CAT_ID":62382,"ELEMENT_SET_NO":999,"REV_AT_EPOCH":6774,"BSTAR":0.00034106017,"MEAN_MOTION_DOT":9.457e-5,"MEAN_MOTION_DDOT":0}]
